STARLINK-32317          
1 60918U 24154R   26068.90264559  .00003990  00000+0  14677-3 0  9990
2 60918  53.1585 283.1348 0001027 100.4250 259.6866 15.30195816 86368
ARCSTONE                
1 64540U 25135N   26068.88991918  .00026427  00000+0  94900-3 0  9995
2 64540  97.4495 185.9194 0004120 166.7863 193.3485 15.28638458 39847
